ONEWEB-0363             
1 49289U 21090L   25364.30274702  .00000001  00000+0 -29967-4 0  9997
2 49289  87.9223 308.1220 0002057  84.3275 275.8093 13.20773366208017
ONEWEB-0364             
1 49290U 21090M   25364.56789782  .00000132  00000+0  29321-3 0  9993
2 49290  87.9211 308.0908 0001857  80.0629 280.0714 13.20772343209182
ONEWEB-0365             
1 49291U 21090N   25364.34272114  .00000091  00000+0  19622-3 0  9993
2 49291  87.9219 338.5477 0001766  80.3310 279.8022 13.19726203204151
ONEWEB-0366             
1 49292U 21090P   25364.45439912 -.00000207  00000+0 -59195-3 0  9997
2 49292  87.9002 323.3375 0001835  82.6966 277.4372 13.14503641205393
ONEWEB-0367             
1 49293U 21090Q   25364.37693430  .00000050  00000+0  90475-4 0  9997
2 49293  87.9224 308.1064 0001636  71.5675 288.5636 13.20772294207543
ONEWEB-0368             
1 49294U 21090R   25364.35010998  .00000025  00000+0  29137-4 0  9997
2 49294  87.9216 308.1398 0002576  71.1410 289.0003 13.20772420208694
ONEWEB-0369             
1 49295U 21090S   25364.33796516 -.00000192  00000+0 -51160-3 0  9990
2 49295  87.9211 338.5744 0002130  82.8919 277.2456 13.19726062204147
ONEWEB-0370             
1 49296U 21090T   25364.31064177  .00000047  00000+0  84136-4 0  9997
2 49296  87.9221 308.1233 0001470  80.9614 279.1686 13.20772414207572
